NORAD_CAT_ID,OBJECT_NAME,OBJECT_TYPE,EPOCH,MEAN_MOTION,ECCENTRICITY,INCLINATION,RA_OF_ASC_NODE,ARG_OF_PERICENTER,MEAN_ANOMALY,BSTAR,MEAN_MOTION_DOT,MEAN_MOTION_DDOT,TLE_LINE0,TLE_LINE1,TLE_LINE2,SEMIMAJOR_AXIS,PERIOD,APOGEE,PERIGEE,DECAYED
51975.0,STARLINK-3674,PAYLOAD,2022-05-29 21:29:59,15.25998718,8.35e-05,53.215,103.7288,112.6319,247.4769,-0.01213,-0.00303664,0.0,0 STARLINK-3674,1 51975U 22025V   22149.89583058 -.00303664  00000-0 -12130-1 0  9994,2 51975  53.2150 103.7288 0000835 112.6319 247.4769 15.25998718 12897,6865.925,94.364,488.36300000000006,487.217,0.0
51975.0,STARLINK-3674,PAYLOAD,2022-05-30 13:14:18,15.24744032,0.000146,53.2154,100.7209,302.1027,57.9831,-0.014517,-0.00347837,0.0,0 STARLINK-3674,1 51975U 22025V   22150.55160820 -.00347837  00000-0 -14517-1 0  9998,2 51975  53.2154 100.7209 0001460 302.1027  57.9831 15.24744032 12990,6869.691,94.442,492.559,490.55300000000005,0.0
51975.0,STARLINK-3674,PAYLOAD,2022-05-30 22:00:00,15.23302224,0.0001776999999999,53.2176,99.0701,46.1168,158.0545,-0.032256,-0.00722867,0.0,0 STARLINK-3674,1 51975U 22025V   22150.91667824 -.00722867  00000-0 -32256-1 0  9994,2 51975  53.2176  99.0701 0001777  46.1168 158.0545 15.23302224 14161,6874.025,94.531,497.112,494.669,0.0
51975.0,STARLINK-3674,PAYLOAD,2022-05-31 06:00:02,15.22790755,0.0001771999999999,53.2175,97.5448,46.7397,186.1556,-0.032643,-0.00720632,0.0,0 STARLINK-3674,1 51975U 22025V   22151.25002315 -.00720632  00000-0 -32643-1 0  9998,2 51975  53.2175  97.5448 0001772  46.7397 186.1556 15.22790755  1301,6875.564,94.563,498.648,496.211,0.0
51975.0,STARLINK-3674,PAYLOAD,2022-05-31 22:00:00,15.2177294,0.0001674,53.2176,94.4932,46.2172,242.0982,-0.033799,-0.00723727,0.0,0 STARLINK-3674,1 51975U 22025V   22151.91667824 -.00723727  00000-0 -33799-1 0  9994,2 51975  53.2176  94.4932 0001674  46.2172 242.0982 15.21772940 14318,6878.63,94.626,501.646,499.343,0.0
51975.0,STARLINK-3674,PAYLOAD,2022-06-01 20:00:01,15.20369801,0.0001581,53.2176,90.3068,53.6458,216.9574,-0.035137,-0.00722024,0.0,0 STARLINK-3674,1 51975U 22025V   22152.83334491 -.00722024  00000-0 -35137-1 0  9994,2 51975  53.2176  90.3068 0001581  53.6458 216.9574 15.20369801  1308,6882.861,94.714,505.814,503.638,0.0
51975.0,STARLINK-3674,PAYLOAD,2022-06-03 03:58:41,15.19574005,0.0002885,53.2159,84.2162,342.0956,17.9938,-0.010369,-0.00217167,0.0,0 STARLINK-3674,1 51975U 22025V   22154.16576003 -.00217167  00000-0 -10369-1 0  9996,2 51975  53.2159  84.2162 0002885 342.0956  17.9938 15.19574005 14659,6885.264,94.763,509.116,505.143,0.0
51975.0,STARLINK-3674,PAYLOAD,2022-06-03 10:17:56,15.19175912,0.0001013,53.2159,83.0179,124.7467,235.3625,-0.011353,-0.00234415,0.0,0 STARLINK-3674,1 51975U 22025V   22154.42912513 -.00234415  00000-0 -11353-1 0  9994,2 51975  53.2159  83.0179 0001013 124.7467 235.3625 15.19175912 14695,6886.467,94.788,509.029,507.634,0.0
51975.0,STARLINK-3674,PAYLOAD,2022-06-03 18:12:03,15.18670004,7.01e-05,53.2156,81.5201,153.5692,206.534,-0.010544,-0.00215124,0.0,0 STARLINK-3674,1 51975U 22025V   22154.75837960 -.00215124  00000-0 -10544-1 0  9999,2 51975  53.2156  81.5201 0000701 153.5692 206.5340 15.18670004 14745,6887.996,94.82,510.344,509.378,0.0
51975.0,STARLINK-3674,PAYLOAD,2022-06-04 02:06:21,15.18175767,0.0001063,53.2159,80.0346,34.8252,325.2814,-0.01039,-0.00209158,0.0,0 STARLINK-3674,1 51975U 22025V   22155.08774426 -.00209158  00000-0 -10390-1 0  9992,2 51975  53.2159  80.0346 0001063  34.8252 325.2814 15.18175767 14793,6889.491,94.851,512.0880000000002,510.624,0.0
51975.0,STARLINK-3674,PAYLOAD,2022-06-04 11:35:41,15.17656801,0.0002409,53.2172,78.2435,51.1004,309.0207,-0.01102,-0.00218287,0.0,0 STARLINK-3674,1 51975U 22025V   22155.48311945 -.00218287  00000-0 -11020-1 0  9993,2 51975  53.2172  78.2435 0002409  51.1004 309.0207 15.17656801 14853,6891.062,94.883,514.587,511.266,0.0
51975.0,STARLINK-3674,PAYLOAD,2022-06-05 22:00:00,15.14121841,0.000165,53.2177,71.7705,51.1108,215.2005,-0.042029,-0.00721372,0.0,0 STARLINK-3674,1 51975U 22025V   22156.91667824 -.00721372  00000-0 -42029-1 0  9999,2 51975  53.2177  71.7705 0001650  51.1108 215.2005 15.14121841 15075,6901.783,95.105,524.7869999999998,522.509,0.0
51975.0,STARLINK-3674,PAYLOAD,2022-06-06 14:00:01,15.13100241,0.0001469,53.2175,68.76,55.5135,245.4476,-0.043074,-0.00718471,0.0,0 STARLINK-3674,1 51975U 22025V   22157.58334491 -.00718471  00000-0 -43074-1 0  9991,2 51975  53.2175  68.7600 0001469  55.5135 245.4476 15.13100241  1307,6904.889,95.169,527.768,525.74,0.0
51975.0,STARLINK-3674,PAYLOAD,2022-06-06 22:00:00,15.12592168,0.0001514,53.2176,67.2579,54.1855,263.1795,-0.043899,-0.00721619,0.0,0 STARLINK-3674,1 51975U 22025V   22157.91667824 -.00721619  00000-0 -43899-1 0  9990,2 51975  53.2176  67.2579 0001514  54.1855 263.1795 15.12592168 15221,6906.435,95.201,529.346,527.255,0.0
51975.0,STARLINK-3674,PAYLOAD,2022-06-07 14:00:01,15.11569816,0.0001401,53.2174,64.2544,54.9774,293.3611,-0.044917,-0.00717777,0.0,0 STARLINK-3674,1 51975U 22025V   22158.58334491 -.00717777  00000-0 -44917-1 0  9997,2 51975  53.2174  64.2544 0001401  54.9774 293.3611 15.11569816  1300,6909.549,95.265,532.382,530.446,0.0
51975.0,STARLINK-3674,PAYLOAD,2022-06-07 22:00:00,15.11062592,0.0001546,53.2175,62.7561,48.496,314.4075,-0.045857,-0.00722197,0.0,0 STARLINK-3674,1 51975U 22025V   22158.91667824 -.00722197  00000-0 -45857-1 0  9999,2 51975  53.2175  62.7561 0001546  48.4960 314.4075 15.11062592  1306,6911.095,95.297,534.029,531.8919999999998,0.0
51975.0,STARLINK-3674,PAYLOAD,2022-06-08 06:00:02,15.10552559,0.0001323,53.2172,61.2583,61.7825,315.1375,-0.046472,-0.00721593,0.0,0 STARLINK-3674,1 51975U 22025V   22159.25002315 -.00721593  00000-0 -46472-1 0  9998,2 51975  53.2172  61.2583 0001323  61.7825 315.1375 15.10552559 15427,6912.651,95.329,535.43,533.601,0.0
51975.0,STARLINK-3674,PAYLOAD,2022-06-08 14:00:01,15.10039972,0.0001415,53.2173,59.7594,52.968,337.2326,-0.046887,-0.00718027,0.0,0 STARLINK-3674,1 51975U 22025V   22159.58334491 -.00718027  00000-0 -46887-1 0  9995,2 51975  53.2173  59.7594 0001415  52.9680 337.2326 15.10039972  1307,6914.215,95.362,537.058,535.102,0.0
51975.0,STARLINK-3674,PAYLOAD,2022-06-08 22:00:01,15.09528988,0.000158,53.2174,58.2641,48.5136,354.4778,-0.047338,-0.00714996,0.0,0 STARLINK-3674,1 51975U 22025V   22159.91668981 -.00714996  00000-0 -47338-1 0  9999,2 51975  53.2174  58.2641 0001580  48.5136 354.4778 15.09528988  1305,6915.775,95.394,538.7330000000002,536.548,0.0
51975.0,STARLINK-3674,PAYLOAD,2022-06-09 06:00:00,15.08886585,0.0001374,53.2172,56.7682,63.631,351.4296,-0.0049406,-0.00078164,0.0,0 STARLINK-3674,1 51975U 22025V   22160.25001157 -.00078164  00000-0 -49406-2 0  9993,2 51975  53.2172  56.7682 0001374  63.6310 351.4296 15.08886585 15579,6917.738,95.435,540.553,538.653,0.0
51975.0,STARLINK-3674,PAYLOAD,2022-06-09 14:00:01,15.08837899,0.000155,53.2172,55.2698,55.6739,11.0037,-7.5745e-05,-1.493e-05,0.0,0 STARLINK-3674,1 51975U 22025V   22160.58334491 -.00001493  00000-0 -75745-4 0  9997,2 51975  53.2172  55.2698 0001550  55.6739  11.0037 15.08837899  1304,6917.887,95.438,540.8240000000002,538.68,0.0
51975.0,STARLINK-3674,PAYLOAD,2022-06-09 22:00:00,15.08884444,0.0001460999999999,53.2168,53.7649,48.5562,29.8585,-0.0037148,-0.00058996,0.0,0 STARLINK-3674,1 51975U 22025V   22160.91667824 -.00058996  00000-0 -37148-2 0  9996,2 51975  53.2168  53.7649 0001461  48.5562  29.8585 15.08884444  1307,6917.745,95.435,540.62,538.599,0.0
51975.0,STARLINK-3674,PAYLOAD,2022-06-10 00:00:00,15.08856168,0.0001504,53.2169,53.3912,46.4627,124.8671,-0.00078131,-0.00012707,0.0,0 STARLINK-3674,1 51975U 22025V   22161.00001157 -.00012707  00000-0 -78131-3 0  9996,2 51975  53.2169  53.3912 0001504  46.4627 124.8671 15.08856168 15695,6917.831,95.437,540.736,538.656,0.0
51975.0,STARLINK-3674,PAYLOAD,2022-06-10 14:00:01,15.088119099999998,0.0001501999999999,53.2172,50.7703,54.7039,46.9381,-0.0007034,-0.00011456,0.0,0 STARLINK-3674,1 51975U 22025V   22161.58334491 -.00011456  00000-0 -70340-3 0  9993,2 51975  53.2172  50.7703 0001502  54.7039  46.9381 15.08811910  1306,6917.965999999999,95.439,540.87,538.7919999999998,0.0
51975.0,STARLINK-3674,PAYLOAD,2022-06-10 22:00:00,15.08796674,0.0001695,53.2174,49.2755,53.6874,59.5193,0.001371,0.00021573,0.0,0 STARLINK-3674,1 51975U 22025V   22161.91667824  .00021573  00000-0  13710-2 0  9995,2 51975  53.2174  49.2755 0001695  53.6874  59.5193 15.08796674 15839,6918.013000000001,95.44,541.05,538.705,0.0
51975.0,STARLINK-3674,PAYLOAD,2022-06-11 22:00:00,15.08829254,0.0001789,53.2179,44.7924,52.3951,95.5362,0.0014967,0.00023605,0.0,0 STARLINK-3674,1 51975U 22025V   22162.91667824  .00023605  00000-0  14967-2 0  9999,2 51975  53.2179  44.7924 0001789  52.3951  95.5362 15.08829254  1304,6917.913000000001,95.438,541.016,538.5409999999998,0.0
51975.0,STARLINK-3674,PAYLOAD,2022-06-12 06:00:02,15.08835671,0.0001807,53.2177,43.2905,53.7734,105.7881,-0.00039809,-6.617e-05,0.0,0 STARLINK-3674,1 51975U 22025V   22163.25002315 -.00006617  00000-0 -39809-3 0  9994,2 51975  53.2177  43.2905 0001807  53.7734 105.7881 15.08835671 16036,6917.894,95.438,541.009,538.509,0.0
51975.0,STARLINK-3674,PAYLOAD,2022-06-12 14:00:01,15.08813636,0.0001685,53.218,41.7928,61.7434,109.3336,0.0028063,0.00044625,0.0,0 STARLINK-3674,1 51975U 22025V   22163.58334491  .00044625  00000-0  28063-2 0  9991,2 51975  53.2180  41.7928 0001685  61.7434 109.3336 15.08813636  1304,6917.9609999999975,95.439,540.992,538.66,0.0
51975.0,STARLINK-3674,PAYLOAD,2022-06-12 22:00:00,15.08845917,0.0001818,53.218,40.2982,57.427,125.2356,-0.00039434,-6.56e-05,0.0,0 STARLINK-3674,1 51975U 22025V   22163.91667824 -.00006560  00000-0 -39434-3 0  9990,2 51975  53.2180  40.2982 0001818  57.4270 125.2356 15.08845917  1302,6917.861999999999,95.437,540.985,538.47,0.0
